[{"OBJECT_NAME":"STARLINK-32902","OBJECT_ID":"2025-024V","EPOCH":"2025-12-02T05:15:08.281440","MEAN_MOTION":15.27588546,"ECCENTRICITY":7.238e-5,"INCLINATION":42.999,"RA_OF_ASC_NODE":155.4264,"ARG_OF_PERICENTER":279.4742,"MEAN_ANOMALY":80.6027,"EPHEMERIS_TYPE":0,"CLASSIFICATION_TYPE":"U","NORAD_CAT_ID":62898,"ELEMENT_SET_NO":999,"REV_AT_EPOCH":4736,"BSTAR":0.0009330846,"MEAN_MOTION_DOT":0.0002551,"MEAN_MOTION_DDOT":0},{"OBJECT_NAME":"STARLINK-32661","OBJECT_ID":"2025-024W","EPOCH":"2025-12-01T22:01:21.078048","MEAN_MOTION":15.27607,"ECCENTRICITY":0.00019731,"INCLINATION":43.0007,"RA_OF_ASC_NODE":157.4656,"ARG_OF_PERICENTER":271.6975,"MEAN_ANOMALY":88.3651,"EPHEMERIS_TYPE":0,"CLASSIFICATION_TYPE":"U","NORAD_CAT_ID":62899,"ELEMENT_SET_NO":999,"REV_AT_EPOCH":4731,"BSTAR":0.0011102008,"MEAN_MOTION_DOT":0.0003044,"MEAN_MOTION_DDOT":0},{"OBJECT_NAME":"STARLINK-11552 [DTC]","OBJECT_ID":"2025-027A","EPOCH":"2025-12-02T01:02:40.988544","MEAN_MOTION":15.70904248,"ECCENTRICITY":0.00025339,"INCLINATION":43.0028,"RA_OF_ASC_NODE":216.3595,"ARG_OF_PERICENTER":271.7737,"MEAN_ANOMALY":88.284,"EPHEMERIS_TYPE":0,"CLASSIFICATION_TYPE":"U","NORAD_CAT_ID":62907,"ELEMENT_SET_NO":999,"REV_AT_EPOCH":4783,"BSTAR":0.0015439702,"MEAN_MOTION_DOT":0.00203137,"MEAN_MOTION_DDOT":0},{"OBJECT_NAME":"STARLINK-11561 [DTC]","OBJECT_ID":"2025-027B","EPOCH":"2025-12-02T01:55:59.560608","MEAN_MOTION":15.70919019,"ECCENTRICITY":0.00016594,"INCLINATION":43.0002,"RA_OF_ASC_NODE":215.7615,"ARG_OF_PERICENTER":256.7432,"MEAN_ANOMALY":103.325,"EPHEMERIS_TYPE":0,"CLASSIFICATION_TYPE":"U","NORAD_CAT_ID":62908,"ELEMENT_SET_NO":999,"REV_AT_EPOCH":4780,"BSTAR":0.00063050128,"MEAN_MOTION_DOT":0.00081522,"MEAN_MOTION_DDOT":0},{"OBJECT_NAME":"STARLINK-11567 [DTC]","OBJECT_ID":"2025-027C","EPOCH":"2025-12-02T01:25:37.799328","MEAN_MOTION":15.7091573,"ECCENTRICITY":0.00010602,"INCLINATION":42.9999,"RA_OF_ASC_NODE":216.4857,"ARG_OF_PERICENTER":303.9454,"MEAN_ANOMALY":56.1313,"EPHEMERIS_TYPE":0,"CLASSIFICATION_TYPE":"U","NORAD_CAT_ID":62909,"ELEMENT_SET_NO":999,"REV_AT_EPOCH":4779,"BSTAR":0.0020437745,"MEAN_MOTION_DOT":0.00271404,"MEAN_MOTION_DDOT":0},{"OBJECT_NAME":"STARLINK-11569 [DTC]","OBJECT_ID":"2025-027D","EPOCH":"2025-12-02T02:11:18.516192","MEAN_MOTION":15.70868146,"ECCENTRICITY":0.00014389,"INCLINATION":43,"RA_OF_ASC_NODE":215.8476,"ARG_OF_PERICENTER":267.8994,"MEAN_ANOMALY":92.1709,"EPHEMERIS_TYPE":0,"CLASSIFICATION_TYPE":"U","NORAD_CAT_ID":62910,"ELEMENT_SET_NO":999,"REV_AT_EPOCH":4780,"BSTAR":0.0012464988,"MEAN_MOTION_DOT":0.00162858,"MEAN_MOTION_DDOT":0},{"OBJECT_NAME":"STARLINK-11537 [DTC]","OBJECT_ID":"2025-027E","EPOCH":"2025-12-02T00:55:02.178624","MEAN_MOTION":15.70903447,"ECCENTRICITY":0.00026489,"INCLINATION":43.0024,"RA_OF_ASC_NODE":216.3149,"ARG_OF_PERICENTER":266.7073,"MEAN_ANOMALY":93.3491,"EPHEMERIS_TYPE":0,"CLASSIFICATION_TYPE":"U","NORAD_CAT_ID":62911,"ELEMENT_SET_NO":999,"REV_AT_EPOCH":4783,"BSTAR":0.0015245045,"MEAN_MOTION_DOT":0.00200502,"MEAN_MOTION_DDOT":0},{"OBJECT_NAME":"STARLINK-11565 [DTC]","OBJECT_ID":"2025-027F","EPOCH":"2025-12-02T00:09:08.836128","MEAN_MOTION":15.71022492,"ECCENTRICITY":0.0006065,"INCLINATION":43.0011,"RA_OF_ASC_NODE":216.0581,"ARG_OF_PERICENTER":240.3746,"MEAN_ANOMALY":119.6518,"EPHEMERIS_TYPE":0,"CLASSIFICATION_TYPE":"U","NORAD_CAT_ID":62912,"ELEMENT_SET_NO":999,"REV_AT_EPOCH":4779,"BSTAR":0.0018993119,"MEAN_MOTION_DOT":0.00252912,"MEAN_MOTION_DDOT":0},{"OBJECT_NAME":"STARLINK-11564 [DTC]","OBJECT_ID":"2025-027G","EPOCH":"2025-12-02T01:10:19.801056","MEAN_MOTION":15.71064611,"ECCENTRICITY":0.0002595,"INCLINATION":43.0004,"RA_OF_ASC_NODE":216.3971,"ARG_OF_PERICENTER":264.8136,"MEAN_ANOMALY":95.2436,"EPHEMERIS_TYPE":0,"CLASSIFICATION_TYPE":"U","NORAD_CAT_ID":62913,"ELEMENT_SET_NO":999,"REV_AT_EPOCH":4779,"BSTAR":0.002007515,"MEAN_MOTION_DOT":0.00268154,"MEAN_MOTION_DDOT":0},{"OBJECT_NAME":"STARLINK-11566 [DTC]","OBJECT_ID":"2025-027H","EPOCH":"2025-12-02T01:17:58.819200","MEAN_MOTION":15.70914437,"ECCENTRICITY":0.00015402,"INCLINATION":43.0015,"RA_OF_ASC_NODE":216.4426,"ARG_OF_PERICENTER":297.1118,"MEAN_ANOMALY":62.9593,"EPHEMERIS_TYPE":0,"CLASSIFICATION_TYPE":"U","NORAD_CAT_ID":62914,"ELEMENT_SET_NO":999,"REV_AT_EPOCH":4783,"BSTAR":0.0018644039,"MEAN_MOTION_DOT":0.00246789,"MEAN_MOTION_DDOT":0},{"OBJECT_NAME":"STARLINK-11555 [DTC]","OBJECT_ID":"2025-027J","EPOCH":"2025-12-02T01:19:17.168448","MEAN_MOTION":15.71037352,"ECCENTRICITY":0.00026698,"INCLINATION":42.999,"RA_OF_ASC_NODE":216.447,"ARG_OF_PERICENTER":260.0069,"MEAN_ANOMALY":100.0497,"EPHEMERIS_TYPE":0,"CLASSIFICATION_TYPE":"U","NORAD_CAT_ID":62915,"ELEMENT_SET_NO":999,"REV_AT_EPOCH":4783,"BSTAR":0.0016020989,"MEAN_MOTION_DOT":0.00212222,"MEAN_MOTION_DDOT":0},{"OBJECT_NAME":"STARLINK-11430 [DTC]","OBJECT_ID":"2025-027K","EPOCH":"2025-12-02T01:33:16.507296","MEAN_MOTION":15.70908632,"ECCENTRICITY":8.479e-5,"INCLINATION":42.9985,"RA_OF_ASC_NODE":216.5262,"ARG_OF_PERICENTER":316.5342,"MEAN_ANOMALY":43.5459,"EPHEMERIS_TYPE":0,"CLASSIFICATION_TYPE":"U","NORAD_CAT_ID":62916,"ELEMENT_SET_NO":999,"REV_AT_EPOCH":4783,"BSTAR":0.0017841069,"MEAN_MOTION_DOT":0.0023577,"MEAN_MOTION_DDOT":0},{"OBJECT_NAME":"STARLINK-11560 [DTC]","OBJECT_ID":"2025-027L","EPOCH":"2025-12-02T00:47:23.441280","MEAN_MOTION":15.70896624,"ECCENTRICITY":0.00022883,"INCLINATION":43.0019,"RA_OF_ASC_NODE":216.2696,"ARG_OF_PERICENTER":260.4424,"MEAN_ANOMALY":99.6186,"EPHEMERIS_TYPE":0,"CLASSIFICATION_TYPE":"U","NORAD_CAT_ID":62917,"ELEMENT_SET_NO":999,"REV_AT_EPOCH":4779,"BSTAR":0.0013692251,"MEAN_MOTION_DOT":0.0017952,"MEAN_MOTION_DDOT":0},{"OBJECT_NAME":"STARLINK-11562 [DTC]","OBJECT_ID":"2025-027M","EPOCH":"2025-12-02T02:03:39.032352","MEAN_MOTION":15.70956649,"ECCENTRICITY":0.00042294,"INCLINATION":42.9996,"RA_OF_ASC_NODE":215.7994,"ARG_OF_PERICENTER":251.5111,"MEAN_ANOMALY":108.5297,"EPHEMERIS_TYPE":0,"CLASSIFICATION_TYPE":"U","NORAD_CAT_ID":62918,"ELEMENT_SET_NO":999,"REV_AT_EPOCH":4784,"BSTAR":0.0015457641,"MEAN_MOTION_DOT":0.00203887,"MEAN_MOTION_DDOT":0},{"OBJECT_NAME":"STARLINK-11457 [DTC]","OBJECT_ID":"2025-027N","EPOCH":"2025-12-02T01:48:21.521376","MEAN_MOTION":15.70888964,"ECCENTRICITY":0.00033278,"INCLINATION":42.9993,"RA_OF_ASC_NODE":215.7146,"ARG_OF_PERICENTER":240.226,"MEAN_ANOMALY":119.8277,"EPHEMERIS_TYPE":0,"CLASSIFICATION_TYPE":"U","NORAD_CAT_ID":62919,"ELEMENT_SET_NO":999,"REV_AT_EPOCH":4780,"BSTAR":0.00098375001,"MEAN_MOTION_DOT":0.00128027,"MEAN_MOTION_DDOT":0},{"OBJECT_NAME":"STARLINK-32921","OBJECT_ID":"2025-027P","EPOCH":"2025-12-02T06:18:06.339168","MEAN_MOTION":15.27610535,"ECCENTRICITY":0.00010926,"INCLINATION":43.0013,"RA_OF_ASC_NODE":318.9564,"ARG_OF_PERICENTER":255.8192,"MEAN_ANOMALY":104.2539,"EPHEMERIS_TYPE":0,"CLASSIFICATION_TYPE":"U","NORAD_CAT_ID":62920,"ELEMENT_SET_NO":999,"REV_AT_EPOCH":4664,"BSTAR":0.0017945916,"MEAN_MOTION_DOT":0.00049499,"MEAN_MOTION_DDOT":0}]
