STARLINK-32902          
1 62898U 25024V   25336.21884585  .00025510  00000+0  93308-3 0  9994
2 62898  42.9990 155.4264 0000723 279.4742  80.6027 15.27588546 47366
STARLINK-32661          
1 62899U 25024W   25335.91760507  .00030440  00000+0  11102-2 0  9997
2 62899  43.0007 157.4656 0001973 271.6975  88.3651 15.27607000 47315
STARLINK-11552 [DTC]    
1 62907U 25027A   25336.04352996  .00203137  00000+0  15440-2 0  9998
2 62907  43.0028 216.3595 0002533 271.7737  88.2840 15.70904248 47833
STARLINK-11561 [DTC]    
1 62908U 25027B   25336.08055047  .00081522  00000+0  63050-3 0  9993
2 62908  43.0002 215.7615 0001659 256.7432 103.3250 15.70919019 47808
STARLINK-11567 [DTC]    
1 62909U 25027C   25336.05946527  .00271404  00000+0  20438-2 0  9995
2 62909  42.9999 216.4857 0001060 303.9454  56.1313 15.70915730 47792
STARLINK-11569 [DTC]    
1 62910U 25027D   25336.09118653  .00162858  00000+0  12465-2 0  9995
2 62910  43.0000 215.8476 0001438 267.8994  92.1709 15.70868146 47804
STARLINK-11537 [DTC]    
1 62911U 25027E   25336.03821966  .00200502  00000+0  15245-2 0  9996
2 62911  43.0024 216.3149 0002648 266.7073  93.3491 15.70903447 47832
STARLINK-11565 [DTC]    
1 62912U 25027F   25336.00635227  .00252912  00000+0  18993-2 0  9992
2 62912  43.0011 216.0581 0006065 240.3746 119.6518 15.71022492 47798
STARLINK-11564 [DTC]    
1 62913U 25027G   25336.04884029  .00268154  00000+0  20075-2 0  9992
2 62913  43.0004 216.3971 0002595 264.8136  95.2436 15.71064611 47792
STARLINK-11566 [DTC]    
1 62914U 25027H   25336.05415300  .00246789  00000+0  18644-2 0  9995
2 62914  43.0015 216.4426 0001540 297.1118  62.9593 15.70914437 47838
STARLINK-11555 [DTC]    
1 62915U 25027J   25336.05505982  .00212222  00000+0  16021-2 0  9994
2 62915  42.9990 216.4470 0002669 260.0069 100.0497 15.71037352 47835
STARLINK-11430 [DTC]    
1 62916U 25027K   25336.06477439  .00235770  00000+0  17841-2 0  9995
2 62916  42.9985 216.5262 0000847 316.5342  43.5459 15.70908632 47833
STARLINK-11560 [DTC]    
1 62917U 25027L   25336.03291020  .00179520  00000+0  13692-2 0  9993
2 62917  43.0019 216.2696 0002288 260.4424  99.6186 15.70896624 47792
STARLINK-11562 [DTC]    
1 62918U 25027M   25336.08586843  .00203887  00000+0  15458-2 0  9995
2 62918  42.9996 215.7994 0004229 251.5111 108.5297 15.70956649 47844
STARLINK-11457 [DTC]    
1 62919U 25027N   25336.07524909  .00128027  00000+0  98375-3 0  9992
2 62919  42.9993 215.7146 0003327 240.2260 119.8277 15.70888964 47802
STARLINK-32921          
1 62920U 25027P   25336.26257337  .00049499  00000+0  17946-2 0  9992
2 62920  43.0013 318.9564 0001092 255.8192 104.2539 15.27610535 46641
